{
  "norad_id": 66241,
  "name": "STARLINK-35497",
  "history": [
    {
      "epoch": "2026-03-28T17:16:07.097376Z",
      "apogee_km": 476.154133192631,
      "perigee_km": 474.2209474063029,
      "latitude_deg": 8.862453212515896e-06,
      "longitude_deg": 110.08510057853422,
      "height_km": 476.5113340316178,
      "semi_major_axis_km": 6853.324540299467,
      "eccentricity": 0.00014104,
      "inclination_deg": 53.1579,
      "raan_deg": 195.2506,
      "arg_perigee_deg": 116.1464,
      "mean_anomaly_deg": 243.9682,
      "mean_motion_rev_day": 15.3020922
    },
    {
      "epoch": "2026-03-29T21:29:05.718048Z",
      "apogee_km": 476.0715029791445,
      "perigee_km": 474.41627442690424,
      "latitude_deg": -5.3737617346034865e-05,
      "longitude_deg": 40.22039989336516,
      "height_km": 476.2065237702935,
      "semi_major_axis_km": 6853.3808887030245,
      "eccentricity": 0.00012076,
      "inclination_deg": 53.1582,
      "raan_deg": 189.789,
      "arg_perigee_deg": 94.481,
      "mean_anomaly_deg": 265.6328,
      "mean_motion_rev_day": 15.30190348
    }
  ]
}